GORIZONT 1 [-]          
1 11158U 78118A   23176.43131433 -.00000182  00000+0  00000+0 0  9992
2 11158  11.1549 190.6259 3375006 301.8458  29.5288  1.00268220112014
GORIZONT 2 [-]          
1 11440U 79062A   23177.74913727 -.00000205  00000+0  00000+0 0  9990
2 11440   8.4009 297.5308 0001820 241.0513  94.4071  1.00287115127116
GORIZONT 3 [-]          
1 11648U 79105A   23177.68815910 -.00000329  00000+0  00000+0 0  9993
2 11648   8.5668 299.0397 0013584 218.7304 113.1623  1.00256189111563
GORIZONT 4 [-]          
1 11841U 80049A   23178.87968397  .00000011  00000+0  00000+0 0  9994
2 11841   9.7375 305.1302 0001083 163.8743  30.8816  0.98628102222846
GORIZONT 5 [-]          
1 13092U 82020A   23178.01017831 -.00000006  00000+0  00000+0 0  9994
2 13092  10.7682 310.5503 0034188 219.9757 328.3720  0.98531644110874
GORIZONT 6 [-]          
1 13624U 82103A   23178.52689890 -.00000144  00000+0  00000+0 0  9996
2 13624   9.7037 310.6576 0001754 171.7743 245.2728  1.00379680110050
GORIZONT 7 [-]          
1 14160U 83066A   23179.24970506 -.00000173  00000+0  00000+0 0  9990
2 14160  11.4298 320.3081 0008477 321.9416  49.5153  0.98349585144128
GORIZONT 8 [-]          
1 14532U 83118A   23177.70110279 -.00000179  00000+0  00000+0 0  9999
2 14532  11.6243 322.2269 0031042 157.3078 182.3041  0.98271273109863
GORIZONT 9 [-]          
1 14940U 84041A   23177.47541684  .00000085  00000+0  00000+0 0  9995
2 14940  10.8107 320.1828 0004987 211.9363 327.3947  1.00288164111125
GORIZONT 10 [-]         
1 15144U 84078A   23177.61018267  .00000130  00000+0  00000+0 0  9995
2 15144  10.9162 321.2034 0001471 157.6403 220.4665  1.00333567143719
GORIZONT 11 [-]         
1 15484U 85007A   23178.72132821 -.00000239  00000+0  00000+0 0  9992
2 15484  11.1106 323.2149 0005378 161.3862 195.6777  1.00269644141749
GORIZONT 12 [-]         
1 16769U 86044A   23177.04454066  .00000095  00000+0  00000+0 0  9992
2 16769  11.7919 328.6931 0001968 188.9921 182.6025  1.00324557136374
GORIZONT 13 [-]         
1 17083U 86090A   23179.10049311 -.00000108  00000+0  00000+0 0  9991
2 17083  13.7300 336.0073 0011826 349.7820   9.0290  0.96726750108177
GORIZONT 14 [-]         
1 17969U 87040A   23179.00743874 -.00000040  00000+0  00000+0 0  9999
2 17969  12.5782 327.2625 0032471 180.1966 186.0070  0.97658081109257
GORIZONT 15 [-]         
1 19017U 88028A   23179.11572622 -.00000143  00000+0  00000+0 0  9999
2 19017  14.0583 338.7382 0038308 162.5483 188.9253  0.97829541108871
GORIZONT 16 [-]         
1 19397U 88071A   23177.42619527 -.00000282  00000+0  00000+0 0  9990
2 19397  12.9041 337.4277 0014748  76.9101 332.7961  0.99982705127368
GORIZONT 17 [-]         
1 19765U 89004A   23177.40629109 -.00000059  00000+0  00000+0 0  9993
2 19765  13.4888 340.8297 0024684 139.9363 213.4377  0.99064474124808
GORIZONT 18 [-]         
1 20107U 89052A   23178.88578550 -.00000216  00000+0  00000+0 0  9999
2 20107  13.5480 342.0618 0032549 325.2812 225.7884  0.99400890123611
GORIZONT 19 [-]         
1 20263U 89081A   23178.87497597 -.00000361  00000+0  00000+0 0  9995
2 20263  13.2686 341.2049 0004683 193.8149 169.4793  1.00266674123614
GORIZONT 20 [-]         
1 20659U 90054A   23177.04610962  .00000050  00000+0  00000+0 0  9991
2 20659  13.7437 344.0237 0007554 172.6178 192.0062  1.00240946120789
GORIZONT 21 [-]         
1 20923U 90094A   23178.75096580 -.00000158  00000+0  00000+0 0  9992
2 20923  13.7643 344.7663 0005277 197.8980 343.7281  1.00298545119551
GORIZONT 22 [-]         
1 20953U 90102A   23176.66378080 -.00000125  00000+0  00000+0 0  9995
2 20953  13.7287 345.1747 0002266  56.2711 191.3841  1.00154396119498
GORIZONT 23 [-]         
1 21533U 91046A   23178.45396519 -.00000068  00000+0  00000+0 0  9990
2 21533  14.5435 349.3541 0002105 320.9616  46.3187  0.98907388109991
GORIZONT 24 [-]         
1 21759U 91074A   23179.32639074 -.00000100  00000+0  00000+0 0  9991
2 21759  14.7235 351.2895 0018077 228.4692  16.7369  0.98444270114351
GORIZONT 25 [-]         
1 21922U 92017A   23177.44841177 -.00000165  00000+0  00000+0 0  9992
2 21922  14.2605 350.5759 0029726  92.0319 268.2297  0.99845282114087
GORIZONT 26 [-]         
1 22041U 92043A   23177.71713639 -.00000091  00000+0  00000+0 0  9993
2 22041  14.4575 352.6252 0030350 239.5826 128.9877  0.99246051112718
GORIZONT 27 [-]         
1 22245U 92082A   23177.74764801 -.00000170  00000+0  00000+0 0  9990
2 22245  14.3718 352.1375 0011182  24.8548 147.9117  1.00212547116269
GORIZONT 28 [-]         
1 22880U 93069A   23179.49653588 -.00000069  00000+0  00000+0 0  9991
2 22880  14.5634 356.0417 0035775 139.8729 222.5072  0.99648395108335
GORIZONT 29 [-]         
1 22907U 93072A   23178.65370122  .00000109  00000+0  00000+0 0  9996
2 22907  14.4678 355.4764 0008557   1.5300   6.1622  1.00134558108339
GORIZONT 30 [-]         
1 23108U 94030A   23178.98267049 -.00000271  00000+0  00000+0 0  9995
2 23108  14.4908 356.3633 0003003 152.5607 217.5117  1.00161630106619
GORIZONT 31 [-]         
1 23775U 96005A   23177.71722355  .00000025  00000+0  00000+0 0  9991
2 23775  14.4941   2.6642 0019166 206.0777 152.6250  0.99898160100193
GORIZONT 32 [-]         
1 23880U 96034A   23178.49471024 -.00000278  00000+0  00000+0 0  9991
2 23880  14.4507   3.1380 0007227   6.5985 226.6623  1.00208114 99169
GORIZONT 33 [-]         
1 26372U 00029A   23179.32669579 -.00000070  00000+0  00000+0 0  9996
2 26372  13.3225  14.5267 0003992 103.8817 268.0920  1.00290939 84534
